OBJECT_NAME,OBJECT_ID,EPOCH,MEAN_MOTION,ECCENTRICITY,INCLINATION,RA_OF_ASC_NODE,ARG_OF_PERICENTER,MEAN_ANOMALY,EPHEMERIS_TYPE,CLASSIFICATION_TYPE,NORAD_CAT_ID,ELEMENT_SET_NO,REV_AT_EPOCH,BSTAR,MEAN_MOTION_DOT,MEAN_MOTION_DDOT
FENGYUN 1C DEB,1999-025FK,2024-12-31T09:37:44.541408,14.76738041,.0128177,98.9533,232.5610,153.0129,19.8036,0,U,29865,999,95635,.15962E-2,.12757E-3,0
FENGYUN 1C DEB,1999-025FL,2024-12-31T16:46:28.746912,14.61659159,.0201339,98.0090,355.6598,225.3243,189.5865,0,U,29866,999,95273,.87724E-3,.5779E-4,0
FENGYUN 1C DEB,1999-025FN,2024-12-31T19:32:36.670848,14.72048730,.0216703,97.9984,51.1467,37.3373,20.6564,0,U,29868,999,95194,.16703E-2,.15189E-3,0
FENGYUN 1C DEB,1999-025FP,2024-12-31T14:19:49.255104,14.35773219,.0088052,98.8623,280.9159,310.7455,171.2312,0,U,29869,999,93851,.16733E-2,.5013E-4,0
FENGYUN 1C DEB,1999-025FQ,2024-12-31T09:14:29.054400,14.28766231,.0121364,98.4146,342.4233,133.2361,8.8273,0,U,29870,999,93647,.1575E-3,.387E-5,0
FENGYUN 1C DEB,1999-025FR,2024-12-31T18:18:39.455424,14.39354161,.0062506,98.9444,297.4679,52.6447,340.2321,0,U,29871,999,93718,.3292E-2,.10438E-3,0
FENGYUN 1C DEB,1999-025FS,2024-12-31T11:41:32.977536,14.36620685,.0242001,98.3677,25.5268,272.1458,85.2037,0,U,29872,999,93616,.15802E-2,.6459E-4,0
FENGYUN 1C DEB,1999-025FT,2024-12-31T20:01:54.427872,13.97775422,.0093604,99.4801,210.2527,57.4638,314.3942,0,U,29873,999,91482,.68348E-3,.956E-5,0
FENGYUN 1C DEB,1999-025FU,2024-12-30T07:03:36.903168,14.22718093,.011248,98.3925,270.8770,292.4667,192.1206,0,U,29874,999,91895,.98297E-2,.23526E-3,0
FENGYUN 1C DEB,1999-025FV,2024-12-31T03:56:39.427008,14.24749873,.0082177,98.4554,65.2907,358.2522,20.4365,0,U,29875,999,93387,.8854E-4,.171E-5,0
FENGYUN 1C DEB,1999-025FW,2024-12-31T01:13:03.375264,14.19957783,.0060644,98.3809,69.7350,305.9788,171.9572,0,U,29876,999,92996,.42417E-3,.877E-5,0
FENGYUN 1C DEB,1999-025FX,2024-12-31T12:55:42.074688,14.23759469,.0047616,98.5416,15.5059,147.8204,8.3384,0,U,29877,999,93054,.11661E-2,.2655E-4,0
FENGYUN 1C DEB,1999-025FY,2024-12-30T13:57:45.333216,14.69972775,.0067663,96.9690,215.3420,251.9737,107.4091,0,U,29878,999,93493,.10504E-1,.65736E-3,0
FENGYUN 1C DEB,1999-025GA,2024-12-31T15:01:06.567744,13.91909915,.0237811,98.1747,318.6453,350.9273,184.1816,0,U,29880,999,90743,.65317E-2,.10463E-3,0
FENGYUN 1C DEB,1999-025GB,2024-12-30T23:06:30.380832,13.57870679,.0296145,98.7011,10.4310,255.0255,131.4597,0,U,29881,999,88525,.46139E-2,.4389E-4,0
FENGYUN 1C DEB,1999-025GE,2024-12-31T11:08:01.263264,14.37798802,.0046529,99.6092,352.2702,57.5217,93.1781,0,U,29884,999,93568,.26446E-2,.8024E-4,0
FENGYUN 1C DEB,1999-025GF,2024-12-31T13:52:31.721952,14.13222080,.0119944,98.3133,319.0710,82.1429,330.4055,0,U,29885,999,92579,.49782E-3,.96E-5,0
FENGYUN 1C DEB,1999-025GG,2024-12-31T06:22:37.041600,15.10890106,.0011331,99.1933,111.9414,330.1251,53.7720,0,U,29886,999,93732,.19419E-1,.33911E-2,0
FENGYUN 1C DEB,1999-025GH,2024-12-30T18:05:25.167264,14.30513957,.0296905,98.7446,78.5310,300.0705,188.8515,0,U,29887,999,93007,.18242E-2,.7652E-4,0
FENGYUN 1C DEB,1999-025GJ,2024-12-31T17:50:01.698144,14.18292980,.027891,99.1874,179.9225,287.7377,69.3539,0,U,29888,999,92596,.18477E-2,.5544E-4,0
FENGYUN 1C DEB,1999-025GK,2024-12-31T13:00:23.302368,14.12694012,.0154885,99.4613,98.0760,282.6005,193.4786,0,U,29889,999,92429,.1066E-2,.2165E-4,0
FENGYUN 1C DEB,1999-025GL,2024-12-31T12:25:53.284512,14.20583405,.0015645,99.4561,97.2418,327.2826,32.7378,0,U,29890,999,92530,.24777E-2,.5289E-4,0
FENGYUN 1C DEB,1999-025GM,2024-12-31T07:53:10.043808,13.99512094,.0065443,98.7312,18.3761,144.6948,227.1059,0,U,29891,999,91642,.10694E-2,.1547E-4,0
FENGYUN 1C DEB,1999-025GN,2024-12-31T14:46:00.096960,14.23268078,.0218574,99.1714,130.2054,214.8340,155.6821,0,U,29892,999,91708,.11966E-1,.34754E-3,0
FENGYUN 1C DEB,1999-025GP,2024-12-31T20:27:31.142592,13.79214955,.017338,98.5266,130.5125,10.0503,142.7309,0,U,29893,999,90371,.4147E-3,.437E-5,0
FENGYUN 1C DEB,1999-025GQ,2024-12-30T21:23:31.717248,13.80373877,.0169862,99.5244,52.1562,238.0035,298.2138,0,U,29894,999,90290,.16262E-2,.1848E-4,0
FENGYUN 1C DEB,1999-025GR,2024-12-31T00:38:10.254048,14.02443960,.0325665,99.8917,76.6093,205.4835,281.7124,0,U,29895,999,90653,.92536E-2,.22721E-3,0
FENGYUN 1C DEB,1999-025GS,2024-12-30T16:27:24.048000,13.64859058,.0240411,99.4531,260.6472,274.9860,111.5626,0,U,29896,999,89307,.19324E-2,.1854E-4,0
FENGYUN 1C DEB,1999-025GT,2024-12-31T16:44:24.556416,13.55332321,.0306393,98.6421,266.9448,317.9776,67.9410,0,U,29897,999,88249,.81674E-2,.7607E-4,0
FENGYUN 1C DEB,1999-025GU,2024-12-31T14:11:24.425952,13.66478882,.0435722,98.2357,42.7434,40.2102,109.8139,0,U,29898,999,88438,.45377E-2,.7225E-4,0
