FENGYUN 1C DEB          
1 29865U 99025FK  24366.40120997  .00012757  00000+0  15962-2 0  9994
2 29865  98.9533 232.5610 0128177 153.0129  19.8036 14.76738041956351
FENGYUN 1C DEB          
1 29866U 99025FL  24366.69894383  .00005779  00000+0  87724-3 0  9995
2 29866  98.0090 355.6598 0201339 225.3243 189.5865 14.61659159952734
FENGYUN 1C DEB          
1 29868U 99025FN  24366.81431332  .00015189  00000+0  16703-2 0  9996
2 29868  97.9984  51.1467 0216703  37.3373  20.6564 14.72048730951947
FENGYUN 1C DEB          
1 29869U 99025FP  24366.59709786  .00005013  00000+0  16733-2 0  9991
2 29869  98.8623 280.9159 0088052 310.7455 171.2312 14.35773219938519
FENGYUN 1C DEB          
1 29870U 99025FQ  24366.38505850  .00000387  00000+0  15750-3 0  9994
2 29870  98.4146 342.4233 0121364 133.2361   8.8273 14.28766231936474
FENGYUN 1C DEB          
1 29871U 99025FR  24366.76295666  .00010438  00000+0  32920-2 0  9993
2 29871  98.9444 297.4679 0062506  52.6447 340.2321 14.39354161937188
FENGYUN 1C DEB          
1 29872U 99025FS  24366.48718724  .00006459  00000+0  15802-2 0  9996
2 29872  98.3677  25.5268 0242001 272.1458  85.2037 14.36620685936167
FENGYUN 1C DEB          
1 29873U 99025FT  24366.83465773  .00000956  00000+0  68348-3 0  9999
2 29873  99.4801 210.2527 0093604  57.4638 314.3942 13.97775422914823
FENGYUN 1C DEB          
1 29874U 99025FU  24365.29417712  .00023526  00000+0  98297-2 0  9992
2 29874  98.3925 270.8770 0112480 292.4667 192.1206 14.22718093918951
FENGYUN 1C DEB          
1 29875U 99025FV  24366.16434522  .00000171  00000+0  88540-4 0  9991
2 29875  98.4554  65.2907 0082177 358.2522  20.4365 14.24749873933878
FENGYUN 1C DEB          
1 29876U 99025FW  24366.05073351  .00000877  00000+0  42417-3 0  9994
2 29876  98.3809  69.7350 0060644 305.9788 171.9572 14.19957783929962
FENGYUN 1C DEB          
1 29877U 99025FX  24366.53868142  .00002655  00000+0  11661-2 0  9990
2 29877  98.5416  15.5059 0047616 147.8204   8.3384 14.23759469930540
FENGYUN 1C DEB          
1 29878U 99025FY  24365.58177469  .00065736  00000+0  10504-1 0  9993
2 29878  96.9690 215.3420 0067663 251.9737 107.4091 14.69972775934931
FENGYUN 1C DEB          
1 29880U 99025GA  24366.62577046  .00010463  00000+0  65317-2 0  9997
2 29880  98.1747 318.6453 0237811 350.9273 184.1816 13.91909915907435
FENGYUN 1C DEB          
1 29881U 99025GB  24365.96285163  .00004389  00000+0  46139-2 0  9991
2 29881  98.7011  10.4310 0296145 255.0255 131.4597 13.57870679885257
FENGYUN 1C DEB          
1 29884U 99025GE  24366.46390351  .00008024  00000+0  26446-2 0  9995
2 29884  99.6092 352.2702 0046529  57.5217  93.1781 14.37798802935681
FENGYUN 1C DEB          
1 29885U 99025GF  24366.57814493  .00000960  00000+0  49782-3 0  9996
2 29885  98.3133 319.0710 0119944  82.1429 330.4055 14.13222080925791
FENGYUN 1C DEB          
1 29886U 99025GG  24366.26570650  .00339110  00000+0  19419-1 0  9991
2 29886  99.1933 111.9414 0011331 330.1251  53.7720 15.10890106937323
FENGYUN 1C DEB          
1 29887U 99025GH  24365.75376351  .00007652  00000+0  18242-2 0  9994
2 29887  98.7446  78.5310 0296905 300.0705 188.8515 14.30513957930077
FENGYUN 1C DEB          
1 29888U 99025GJ  24366.74307521  .00005544  00000+0  18477-2 0  9996
2 29888  99.1874 179.9225 0278910 287.7377  69.3539 14.18292980925968
FENGYUN 1C DEB          
1 29889U 99025GK  24366.54193637  .00002165  00000+0  10660-2 0  9998
2 29889  99.4613  98.0760 0154885 282.6005 193.4786 14.12694012924298
FENGYUN 1C DEB          
1 29890U 99025GL  24366.51797783  .00005289  00000+0  24777-2 0  9993
2 29890  99.4561  97.2418 0015645 327.2826  32.7378 14.20583405925307
FENGYUN 1C DEB          
1 29891U 99025GM  24366.32858847  .00001547  00000+0  10694-2 0  9998
2 29891  98.7312  18.3761 0065443 144.6948 227.1059 13.99512094916426
FENGYUN 1C DEB          
1 29892U 99025GN  24366.61527890  .00034754  00000+0  11966-1 0  9990
2 29892  99.1714 130.2054 0218574 214.8340 155.6821 14.23268078917081
FENGYUN 1C DEB          
1 29893U 99025GP  24366.85244378  .00000437  00000+0  41470-3 0  9990
2 29893  98.5266 130.5125 0173380  10.0503 142.7309 13.79214955903719
FENGYUN 1C DEB          
1 29894U 99025GQ  24365.89133932  .00001848  00000+0  16262-2 0  9994
2 29894  99.5244  52.1562 0169862 238.0035 298.2138 13.80373877902901
FENGYUN 1C DEB          
1 29895U 99025GR  24366.02650757  .00022721  00000+0  92536-2 0  9991
2 29895  99.8917  76.6093 0325665 205.4835 281.7124 14.02443960906534
FENGYUN 1C DEB          
1 29896U 99025GS  24365.68569500  .00001854  00000+0  19324-2 0  9996
2 29896  99.4531 260.6472 0240411 274.9860 111.5626 13.64859058893070
FENGYUN 1C DEB          
1 29897U 99025GT  24366.69750644  .00007607  00000+0  81674-2 0  9999
2 29897  98.6421 266.9448 0306393 317.9776  67.9410 13.55332321882496
FENGYUN 1C DEB          
1 29898U 99025GU  24366.59125493  .00007225  00000+0  45377-2 0  9993
2 29898  98.2357  42.7434 0435722  40.2102 109.8139 13.66478882884383
